IRIDIUM 166             
1 43570U 18061B   25308.84970375  .00000068  00000+0  17281-4 0  9992
2 43570  86.3977 150.5346 0002029  91.3215 268.8214 14.34218005381246
IRIDIUM 158             
1 43571U 18061C   25308.81799512  .00000280  00000+0  92746-4 0  9997
2 43571  86.3977 150.5578 0002093  79.6479 280.4953 14.34219634381201
IRIDIUM 165             
1 43572U 18061D   25308.84336250  .00000048  00000+0  10172-4 0  9992
2 43572  86.3981 150.5892 0002067  90.2763 269.8669 14.34217056381236
IRIDIUM 155             
1 43573U 18061E   25308.80529427  .00000276  00000+0  91651-4 0  9993
2 43573  86.3977 150.4854 0001901  82.5412 277.6000 14.34216742381192
IRIDIUM 154             
1 43574U 18061F   25308.50720421  .00000061  00000+0  14734-4 0  9997
2 43574  86.3978 150.7321 0002111  87.4997 272.6440 14.34218068381200
IRIDIUM 163             
1 43575U 18061G   25308.83701824  .00000068  00000+0  17374-4 0  9990
2 43575  86.3976 150.5169 0002228  84.2533 275.8917 14.34218281381220
IRIDIUM 156             
1 43576U 18061H   25308.53257361 -.00000008  00000+0 -97566-5 0  9998
2 43576  86.3977 150.6509 0001707  83.5612 276.5778 14.34217586381176
IRIDIUM 164             
1 43577U 18061J   25308.86238880  .00000039  00000+0  67037-5 0  9992
2 43577  86.3978 150.5502 0002030  92.7790 267.3638 14.34217991381262
